IRIDIUM 15 [+]          
1 24869U 97034A   17346.30086159  .00000114  00000-0  30772-4 0  9994
2 24869  86.4171 307.5439 0002467  92.2526 267.8955 14.38607465 69544
